IRIDIUM 166             
1 43570U 18061B   26005.59484360  .00000067  00000+0  16699-4 0  9994
2 43570  86.3988 124.7414 0002069  91.8992 268.2440 14.34217809390097
IRIDIUM 158             
1 43571U 18061C   26005.42359355  .00000221  00000+0  71829-4 0  9990
2 43571  86.3990 124.8233 0002142 102.7458 257.3978 14.34216284390037
IRIDIUM 165             
1 43572U 18061D   26005.37919191  .00000414  00000+0  14061-3 0  9993
2 43572  86.3992 124.8854 0001842  94.4864 265.6542 14.34216499390052
IRIDIUM 155             
1 43573U 18061E   26005.62021415 -.00000215  00000+0 -83872-4 0  9993
2 43573  86.3992 124.6616 0002129  96.3878 263.7560 14.34217249390055
IRIDIUM 154             
1 43574U 18061F   26005.60118467  .00000400  00000+0  13580-3 0  9998
2 43574  86.3992 124.7949 0002001  93.8955 266.2470 14.34215522390109
IRIDIUM 163             
1 43575U 18061G   26005.58215814  .00000030  00000+0  37564-5 0  9999
2 43575  86.3987 124.7232 0002034 100.7870 259.3554 14.34217665390071
IRIDIUM 156             
1 43576U 18061H   26005.34748337  .00000036  00000+0  56912-5 0  9999
2 43576  86.3988 124.8285 0002296  96.8471 263.2986 14.34217505390036
IRIDIUM 164             
1 43577U 18061J   26005.60752813  .00000401  00000+0  13595-3 0  9997
2 43577  86.3993 124.7575 0001976  91.4161 268.7261 14.34217986390113
