<?xml version="1.0" encoding="UTF-8"?>
<ndm xmlns:xsi="http://www.w3.org/2001/XMLSchema-instance" xsi:noNamespaceSchemaLocation="https://sanaregistry.org/r/ndmxml_unqualified/ndmxml-2.0.0-master-2.0.xsd">
<omm id="CCSDS_OMM_VERS" version="2.0">
<header><CREATION_DATE/><ORIGINATOR/></header><body><segment><metadata><OBJECT_NAME>IRIDIUM 166</OBJECT_NAME><OBJECT_ID>2018-061B</OBJECT_ID><CENTER_NAME>EARTH</CENTER_NAME><REF_FRAME>TEME</REF_FRAME><TIME_SYSTEM>UTC</TIME_SYSTEM><MEAN_ELEMENT_THEORY>SGP4</MEAN_ELEMENT_THEORY></metadata><data><meanElements><EPOCH>2026-01-05T14:16:34.487040</EPOCH><MEAN_MOTION>14.34217809</MEAN_MOTION><ECCENTRICITY>.00020692</ECCENTRICITY><INCLINATION>86.3988</INCLINATION><RA_OF_ASC_NODE>124.7414</RA_OF_ASC_NODE><ARG_OF_PERICENTER>91.8992</ARG_OF_PERICENTER><MEAN_ANOMALY>268.2440</MEAN_ANOMALY></meanElements><tleParameters><EPHEMERIS_TYPE>0</EPHEMERIS_TYPE><CLASSIFICATION_TYPE>U</CLASSIFICATION_TYPE><NORAD_CAT_ID>43570</NORAD_CAT_ID><ELEMENT_SET_NO>999</ELEMENT_SET_NO><REV_AT_EPOCH>39009</REV_AT_EPOCH><BSTAR>.1669915E-4</BSTAR><MEAN_MOTION_DOT>.67E-6</MEAN_MOTION_DOT><MEAN_MOTION_DDOT>0</MEAN_MOTION_DDOT></tleParameters></data></segment></body></omm>
<omm id="CCSDS_OMM_VERS" version="2.0">
<header><CREATION_DATE/><ORIGINATOR/></header><body><segment><metadata><OBJECT_NAME>IRIDIUM 158</OBJECT_NAME><OBJECT_ID>2018-061C</OBJECT_ID><CENTER_NAME>EARTH</CENTER_NAME><REF_FRAME>TEME</REF_FRAME><TIME_SYSTEM>UTC</TIME_SYSTEM><MEAN_ELEMENT_THEORY>SGP4</MEAN_ELEMENT_THEORY></metadata><data><meanElements><EPOCH>2026-01-05T10:09:58.482720</EPOCH><MEAN_MOTION>14.34216284</MEAN_MOTION><ECCENTRICITY>.00021426</ECCENTRICITY><INCLINATION>86.3990</INCLINATION><RA_OF_ASC_NODE>124.8233</RA_OF_ASC_NODE><ARG_OF_PERICENTER>102.7458</ARG_OF_PERICENTER><MEAN_ANOMALY>257.3978</MEAN_ANOMALY></meanElements><tleParameters><EPHEMERIS_TYPE>0</EPHEMERIS_TYPE><CLASSIFICATION_TYPE>U</CLASSIFICATION_TYPE><NORAD_CAT_ID>43571</NORAD_CAT_ID><ELEMENT_SET_NO>999</ELEMENT_SET_NO><REV_AT_EPOCH>39003</REV_AT_EPOCH><BSTAR>.71829046E-4</BSTAR><MEAN_MOTION_DOT>.221E-5</MEAN_MOTION_DOT><MEAN_MOTION_DDOT>0</MEAN_MOTION_DDOT></tleParameters></data></segment></body></omm>
<omm id="CCSDS_OMM_VERS" version="2.0">
<header><CREATION_DATE/><ORIGINATOR/></header><body><segment><metadata><OBJECT_NAME>IRIDIUM 165</OBJECT_NAME><OBJECT_ID>2018-061D</OBJECT_ID><CENTER_NAME>EARTH</CENTER_NAME><REF_FRAME>TEME</REF_FRAME><TIME_SYSTEM>UTC</TIME_SYSTEM><MEAN_ELEMENT_THEORY>SGP4</MEAN_ELEMENT_THEORY></metadata><data><meanElements><EPOCH>2026-01-05T09:06:02.181024</EPOCH><MEAN_MOTION>14.34216499</MEAN_MOTION><ECCENTRICITY>.0001842</ECCENTRICITY><INCLINATION>86.3992</INCLINATION><RA_OF_ASC_NODE>124.8854</RA_OF_ASC_NODE><ARG_OF_PERICENTER>94.4864</ARG_OF_PERICENTER><MEAN_ANOMALY>265.6542</MEAN_ANOMALY></meanElements><tleParameters><EPHEMERIS_TYPE>0</EPHEMERIS_TYPE><CLASSIFICATION_TYPE>U</CLASSIFICATION_TYPE><NORAD_CAT_ID>43572</NORAD_CAT_ID><ELEMENT_SET_NO>999</ELEMENT_SET_NO><REV_AT_EPOCH>39005</REV_AT_EPOCH><BSTAR>.14061301E-3</BSTAR><MEAN_MOTION_DOT>.414E-5</MEAN_MOTION_DOT><MEAN_MOTION_DDOT>0</MEAN_MOTION_DDOT></tleParameters></data></segment></body></omm>
<omm id="CCSDS_OMM_VERS" version="2.0">
<header><CREATION_DATE/><ORIGINATOR/></header><body><segment><metadata><OBJECT_NAME>IRIDIUM 155</OBJECT_NAME><OBJECT_ID>2018-061E</OBJECT_ID><CENTER_NAME>EARTH</CENTER_NAME><REF_FRAME>TEME</REF_FRAME><TIME_SYSTEM>UTC</TIME_SYSTEM><MEAN_ELEMENT_THEORY>SGP4</MEAN_ELEMENT_THEORY></metadata><data><meanElements><EPOCH>2026-01-05T14:53:06.502560</EPOCH><MEAN_MOTION>14.34217249</MEAN_MOTION><ECCENTRICITY>.00021299</ECCENTRICITY><INCLINATION>86.3992</INCLINATION><RA_OF_ASC_NODE>124.6616</RA_OF_ASC_NODE><ARG_OF_PERICENTER>96.3878</ARG_OF_PERICENTER><MEAN_ANOMALY>263.7560</MEAN_ANOMALY></meanElements><tleParameters><EPHEMERIS_TYPE>0</EPHEMERIS_TYPE><CLASSIFICATION_TYPE>U</CLASSIFICATION_TYPE><NORAD_CAT_ID>43573</NORAD_CAT_ID><ELEMENT_SET_NO>999</ELEMENT_SET_NO><REV_AT_EPOCH>39005</REV_AT_EPOCH><BSTAR>-.83872063E-4</BSTAR><MEAN_MOTION_DOT>-.215E-5</MEAN_MOTION_DOT><MEAN_MOTION_DDOT>0</MEAN_MOTION_DDOT></tleParameters></data></segment></body></omm>
<omm id="CCSDS_OMM_VERS" version="2.0">
<header><CREATION_DATE/><ORIGINATOR/></header><body><segment><metadata><OBJECT_NAME>IRIDIUM 154</OBJECT_NAME><OBJECT_ID>2018-061F</OBJECT_ID><CENTER_NAME>EARTH</CENTER_NAME><REF_FRAME>TEME</REF_FRAME><TIME_SYSTEM>UTC</TIME_SYSTEM><MEAN_ELEMENT_THEORY>SGP4</MEAN_ELEMENT_THEORY></metadata><data><meanElements><EPOCH>2026-01-05T14:25:42.355488</EPOCH><MEAN_MOTION>14.34215522</MEAN_MOTION><ECCENTRICITY>.00020013</ECCENTRICITY><INCLINATION>86.3992</INCLINATION><RA_OF_ASC_NODE>124.7949</RA_OF_ASC_NODE><ARG_OF_PERICENTER>93.8955</ARG_OF_PERICENTER><MEAN_ANOMALY>266.2470</MEAN_ANOMALY></meanElements><tleParameters><EPHEMERIS_TYPE>0</EPHEMERIS_TYPE><CLASSIFICATION_TYPE>U</CLASSIFICATION_TYPE><NORAD_CAT_ID>43574</NORAD_CAT_ID><ELEMENT_SET_NO>999</ELEMENT_SET_NO><REV_AT_EPOCH>39010</REV_AT_EPOCH><BSTAR>.13580142E-3</BSTAR><MEAN_MOTION_DOT>.4E-5</MEAN_MOTION_DOT><MEAN_MOTION_DDOT>0</MEAN_MOTION_DDOT></tleParameters></data></segment></body></omm>
<omm id="CCSDS_OMM_VERS" version="2.0">
<header><CREATION_DATE/><ORIGINATOR/></header><body><segment><metadata><OBJECT_NAME>IRIDIUM 163</OBJECT_NAME><OBJECT_ID>2018-061G</OBJECT_ID><CENTER_NAME>EARTH</CENTER_NAME><REF_FRAME>TEME</REF_FRAME><TIME_SYSTEM>UTC</TIME_SYSTEM><MEAN_ELEMENT_THEORY>SGP4</MEAN_ELEMENT_THEORY></metadata><data><meanElements><EPOCH>2026-01-05T13:58:18.463296</EPOCH><MEAN_MOTION>14.34217665</MEAN_MOTION><ECCENTRICITY>.0002034</ECCENTRICITY><INCLINATION>86.3987</INCLINATION><RA_OF_ASC_NODE>124.7232</RA_OF_ASC_NODE><ARG_OF_PERICENTER>100.7870</ARG_OF_PERICENTER><MEAN_ANOMALY>259.3554</MEAN_ANOMALY></meanElements><tleParameters><EPHEMERIS_TYPE>0</EPHEMERIS_TYPE><CLASSIFICATION_TYPE>U</CLASSIFICATION_TYPE><NORAD_CAT_ID>43575</NORAD_CAT_ID><ELEMENT_SET_NO>999</ELEMENT_SET_NO><REV_AT_EPOCH>39007</REV_AT_EPOCH><BSTAR>.3756377E-5</BSTAR><MEAN_MOTION_DOT>.3E-6</MEAN_MOTION_DOT><MEAN_MOTION_DDOT>0</MEAN_MOTION_DDOT></tleParameters></data></segment></body></omm>
<omm id="CCSDS_OMM_VERS" version="2.0">
<header><CREATION_DATE/><ORIGINATOR/></header><body><segment><metadata><OBJECT_NAME>IRIDIUM 156</OBJECT_NAME><OBJECT_ID>2018-061H</OBJECT_ID><CENTER_NAME>EARTH</CENTER_NAME><REF_FRAME>TEME</REF_FRAME><TIME_SYSTEM>UTC</TIME_SYSTEM><MEAN_ELEMENT_THEORY>SGP4</MEAN_ELEMENT_THEORY></metadata><data><meanElements><EPOCH>2026-01-05T08:20:22.563168</EPOCH><MEAN_MOTION>14.34217505</MEAN_MOTION><ECCENTRICITY>.00022966</ECCENTRICITY><INCLINATION>86.3988</INCLINATION><RA_OF_ASC_NODE>124.8285</RA_OF_ASC_NODE><ARG_OF_PERICENTER>96.8471</ARG_OF_PERICENTER><MEAN_ANOMALY>263.2986</MEAN_ANOMALY></meanElements><tleParameters><EPHEMERIS_TYPE>0</EPHEMERIS_TYPE><CLASSIFICATION_TYPE>U</CLASSIFICATION_TYPE><NORAD_CAT_ID>43576</NORAD_CAT_ID><ELEMENT_SET_NO>999</ELEMENT_SET_NO><REV_AT_EPOCH>39003</REV_AT_EPOCH><BSTAR>.5691201E-5</BSTAR><MEAN_MOTION_DOT>.36E-6</MEAN_MOTION_DOT><MEAN_MOTION_DDOT>0</MEAN_MOTION_DDOT></tleParameters></data></segment></body></omm>
<omm id="CCSDS_OMM_VERS" version="2.0">
<header><CREATION_DATE/><ORIGINATOR/></header><body><segment><metadata><OBJECT_NAME>IRIDIUM 164</OBJECT_NAME><OBJECT_ID>2018-061J</OBJECT_ID><CENTER_NAME>EARTH</CENTER_NAME><REF_FRAME>TEME</REF_FRAME><TIME_SYSTEM>UTC</TIME_SYSTEM><MEAN_ELEMENT_THEORY>SGP4</MEAN_ELEMENT_THEORY></metadata><data><meanElements><EPOCH>2026-01-05T14:34:50.430432</EPOCH><MEAN_MOTION>14.34217986</MEAN_MOTION><ECCENTRICITY>.0001976</ECCENTRICITY><INCLINATION>86.3993</INCLINATION><RA_OF_ASC_NODE>124.7575</RA_OF_ASC_NODE><ARG_OF_PERICENTER>91.4161</ARG_OF_PERICENTER><MEAN_ANOMALY>268.7261</MEAN_ANOMALY></meanElements><tleParameters><EPHEMERIS_TYPE>0</EPHEMERIS_TYPE><CLASSIFICATION_TYPE>U</CLASSIFICATION_TYPE><NORAD_CAT_ID>43577</NORAD_CAT_ID><ELEMENT_SET_NO>999</ELEMENT_SET_NO><REV_AT_EPOCH>39011</REV_AT_EPOCH><BSTAR>.1359522E-3</BSTAR><MEAN_MOTION_DOT>.401E-5</MEAN_MOTION_DOT><MEAN_MOTION_DDOT>0</MEAN_MOTION_DDOT></tleParameters></data></segment></body></omm>

</ndm>
